[{"OBJECT_NAME":"KUIPER-00078","OBJECT_ID":"2025-151K","EPOCH":"2026-03-09T22:25:22.408032","MEAN_MOTION":14.79910308,"ECCENTRICITY":9.148e-5,"INCLINATION":51.901,"RA_OF_ASC_NODE":294.5072,"ARG_OF_PERICENTER":57.8645,"MEAN_ANOMALY":302.2406,"EPHEMERIS_TYPE":0,"CLASSIFICATION_TYPE":"U","NORAD_CAT_ID":64825,"ELEMENT_SET_NO":999,"REV_AT_EPOCH":3541,"BSTAR":-0.00014297297,"MEAN_MOTION_DOT":-1.31e-5,"MEAN_MOTION_DDOT":0},{"OBJECT_NAME":"CZ-6A DEB","OBJECT_ID":"2024-140HY","EPOCH":"2026-03-09T14:05:23.207424","MEAN_MOTION":14.55951204,"ECCENTRICITY":0.012181,"INCLINATION":89.0321,"RA_OF_ASC_NODE":284.6836,"ARG_OF_PERICENTER":231.2333,"MEAN_ANOMALY":127.7945,"EPHEMERIS_TYPE":0,"CLASSIFICATION_TYPE":"U","NORAD_CAT_ID":60845,"ELEMENT_SET_NO":999,"REV_AT_EPOCH":8346,"BSTAR":0.00016997,"MEAN_MOTION_DOT":8.43e-6,"MEAN_MOTION_DDOT":0}]
